ONEWEB-0271             
1 48989U 21060Y   24321.13796655  .00000131  00000+0  30926-3 0  9998
2 48989  87.9096 343.9267 0002023  84.6842 275.4520 13.16597310163609
ONEWEB-0272             
1 48990U 21060Z   24321.08413965 -.00000001  00000+0 -36005-4 0  9997
2 48990  87.9098 343.9679 0001991  87.1014 273.0345 13.16596290163540
ONEWEB-0273             
1 48991U 21060AA  24321.10630645 -.00000003  00000+0 -41595-4 0  9999
2 48991  87.9096 343.9493 0001735  86.2500 273.8829 13.16595844163526
ONEWEB-0274             
1 48992U 21060AB  24321.13163945  .00000176  00000+0  42731-3 0  9998
2 48992  87.9103 343.9681 0002328  93.2448 266.8949 13.16596999163564
ONEWEB-0275             
1 48993U 21060AC  24321.12055860  .00000029  00000+0  42615-4 0  9993
2 48993  87.9097 343.9416 0001903  88.3128 271.8221 13.16596027163494
ONEWEB-0276             
1 48994U 21060AD  24321.30579729  .00000093  00000+0  20951-3 0  9998
2 48994  87.9098 343.9011 0001799  84.9870 275.1466 13.16596631163530
ONEWEB-0277             
1 48995U 21060AE  24321.09047306  .00000046  00000+0  86126-4 0  9991
2 48995  87.9097 343.9814 0002045  80.0484 280.0878 13.16596687163492
ONEWEB-0278             
1 48996U 21060AF  24321.46095581  .00000063  00000+0  13050-3 0  9995
2 48996  87.9096 343.8671 0001558  94.5990 265.5319 13.16596710164982
ONEWEB-0279             
1 48997U 21060AG  24321.08889636  .00000020  00000+0  18453-4 0  9992
2 48997  87.9098 343.9383 0002097  84.0150 276.1220 13.16595485163556
ONEWEB-0280             
1 48998U 21060AH  24321.10395567 -.00000047  00000+0 -15611-3 0  9994
2 48998  87.9096 343.9387 0001677  80.7953 279.3367 13.16596183163492
ONEWEB-0281             
1 48999U 21060AJ  24321.33746226 -.00000067  00000+0 -20799-3 0  9997
2 48999  87.9095 343.8922 0001997  95.5340 264.6018 13.16596218164901
ONEWEB-0282             
1 49000U 21060AK  24321.44354258  .00000056  00000+0  11229-3 0  9997
2 49000  87.9096 343.8879 0001777  84.2775 275.8558 13.16596086164906
ONEWEB-0283             
1 49001U 21060AL  24321.12847403  .00000097  00000+0  21945-3 0  9993
2 49001  87.9092 343.9553 0002028  87.8519 272.2844 13.16596144163552
ONEWEB-0284             
1 49002U 21060AM  24321.12214403 -.00001036  00000+0 -27455-2 0  9999
2 49002  87.9089 343.9310 0001571  96.7569 263.3741 13.16585987163534
ONEWEB-0285             
1 49075U 21075A   24321.41129755  .00000234  00000+0  61376-3 0  9990
2 49075  87.8858 105.7196 0001468  95.0308 265.0988 13.12439757160405
ONEWEB-0286             
1 49076U 21075B   24320.92533244 -.00000152  00000+0 -45760-3 0  9998
2 49076  87.8851 105.8145 0001522 105.3150 254.8147 13.12442998158710
ONEWEB-0287             
1 49077U 21075C   24320.98864496  .00000066  00000+0  13799-3 0  9990
2 49077  87.9076 121.0460 0001375  99.1919 260.9368 13.17651486157485
ONEWEB-0288             
1 49078U 21075D   24321.14027486 -.00000257  00000+0 -74976-3 0  9998
2 49078  87.8851 105.7748 0001354  97.2789 262.8493 13.12444724159364
ONEWEB-0289             
1 49079U 21075E   24321.16922460 -.00000005  00000+0 -47092-4 0  9998
2 49079  87.9075 121.0394 0001590  90.6602 269.4711 13.17650979158085
ONEWEB-0290             
1 49080U 21075F   24321.15234749  .00000029  00000+0  41996-4 0  9996
2 49080  87.9079 121.0020 0001309  64.7281 295.3986 13.17651186157497
ONEWEB-0291             
1 49081U 21075G   24321.21309762 -.00000010  00000+0 -57820-4 0  9997
2 49081  87.9069 121.0033 0001298  98.0362 262.0917 13.17650170157495
ONEWEB-0293             
1 49082U 21075H   24321.16246897 -.00000063  00000+0 -19643-3 0  9999
2 49082  87.9078 121.0351 0001364  88.3922 271.7365 13.17646667157510
ONEWEB-0294             
1 49083U 21075J   24321.45171077 -.00000077  00000+0 -24990-3 0  9995
2 49083  87.8853 105.7119 0000903  90.4938 269.6294 13.12442998159785
ONEWEB-0295             
1 49084U 21075K   24321.46535880  .00000040  00000+0  69446-4 0  9997
2 49084  87.9078 120.9535 0001290 105.9487 254.1787 13.17652614158472
ONEWEB-0296             
1 49085U 21075L   24321.12729487 -.00000450  00000+0 -12871-2 0  9994
2 49085  87.8853 105.7807 0000976 118.6745 241.4482 13.12442035158755
ONEWEB-0297             
1 49086U 21075M   24321.46305983  .00000275  00000+0  72978-3 0  9991
2 49086  87.8864 105.7319 0001540  98.1451 261.9852 13.12445977160399
ONEWEB-0298             
1 49087U 21075N   24321.46971894  .00000069  00000+0  14490-3 0  9998
2 49087  87.9078 120.9706 0001630 101.4433 258.6882 13.17649361158532
ONEWEB-0299             
1 49088U 21075P   24321.47128114  .00000087  00000+0  19198-3 0  9999
2 49088  87.9070 120.9328 0001582 102.1364 257.9945 13.17648916158494
ONEWEB-0300             
1 49089U 21075Q   24321.15000962  .00000070  00000+0  15925-3 0  9991
2 49089  87.8854 105.7700 0001915  93.6220 266.5128 13.12442887159386
ONEWEB-0301             
1 49090U 21075R   24321.43873037 -.00000457  00000+0 -13069-2 0  9992
2 49090  87.8855 105.7171 0001829  92.1892 267.9446 13.12443029159774
ONEWEB-0302             
1 49091U 21075S   24321.42575071 -.00000262  00000+0 -76447-3 0  9993
2 49091  87.8855 105.7186 0001063  94.2079 265.9171 13.12442377159768
ONEWEB-0304             
1 49092U 21075T   24321.14223496  .00000046  00000+0  85456-4 0  9993
2 49092  87.9076 121.0199 0001491  99.5754 260.5546 13.17652016157452
ONEWEB-0305             
1 49093U 21075U   24321.21140127  .00000024  00000+0  28588-4 0  9990
2 49093  87.9073 120.9894 0001530 110.8973 249.2323 13.17645699157494
ONEWEB-0308             
1 49094U 21075V   24321.41924699 -.00007380  00000+0 -20555-1 0  9994
2 49094  87.8857 105.7176 0001663  93.4365 266.6954 13.12480597159793
ONEWEB-0309             
1 49095U 21075W   24320.98698170  .00000079  00000+0  17070-3 0  9994
2 49095  87.9077 121.0433 0001052  83.4681 276.6571 13.17649827157431
ONEWEB-0310             
1 49096U 21075X   24321.12890654 -.00000776  00000+0 -21918-2 0  9994
2 49096  87.8864 105.7975 0001421  93.4974 266.6317 13.12442025159368
ONEWEB-0311             
1 49097U 21075Y   24321.14560477 -.00000002  00000+0 -37707-4 0  9991
2 49097  87.9077 121.0129 0001591 110.2764 249.8539 13.17648709157506
ONEWEB-0312             
1 49098U 21075Z   24321.46452671  .00000030  00000+0  44560-4 0  9997
2 49098  87.9078 120.9810 0001162 106.7967 253.3293 13.17648872158501
ONEWEB-0313             
1 49099U 21075AA  24321.16571909 -.00000012  00000+0 -63448-4 0  9999
2 49099  87.9071 121.0562 0001374 100.5263 259.6023 13.17650214157475
ONEWEB-0314             
1 49100U 21075AB  24321.20802785  .00000096  00000+0  21352-3 0  9993
2 49100  87.9072 120.9872 0001224 106.3898 253.7368 13.17645654157450
ONEWEB-0315             
1 49101U 21075AC  24321.48415282  .00000340  00000+0  90976-3 0  9996
2 49101  87.8854 105.6968 0001781 107.4948 252.6375 13.12444213160396
ONEWEB-0316             
1 49102U 21075AD  24321.13235497 -.00002282  00000+0 -58232-2 0  9994
2 49102  87.9099  90.4905 0001392 110.8896 249.2385 13.18667757161029
ONEWEB-0317             
1 49103U 21075AE  24321.40141804  .00000531  00000+0  14402-2 0  9997
2 49103  87.8855 105.7253 0001564  77.2417 282.8886 13.12445430160395
ONEWEB-0318             
1 49104U 21075AF  24321.28092581  .00000039  00000+0  65155-4 0  9997
2 49104  87.9095  90.4504 0001716 109.1985 250.9333 13.18688193161009
ONEWEB-0319             
1 49105U 21075AG  24321.45102916  .00000075  00000+0  16080-3 0  9993
2 49105  87.9078 120.9774 0001599 111.4451 248.6852 13.17649163158517
ONEWEB-0323             
1 49106U 21075AH  24321.46793996  .00000406  00000+0  10944-2 0  9999
2 49106  87.8853 105.6987 0001747 124.5777 235.5516 13.12441877159773
ONEWEB-0329             
1 49107U 21075AJ  24321.45947568  .00000045  00000+0  81509-4 0  9991
2 49107  87.9077 120.9800 0001431  99.9877 260.1416 13.17648623158497
ONEWEB-0330             
1 49108U 21075AK  24321.46116342  .00000089  00000+0  19557-3 0  9992
2 49108  87.9077 120.9812 0001258  96.6692 263.4583 13.17648345158534
ONEWEB-0292             
1 49186U 21083A   24321.28105138 -.00000169  00000+0 -49738-3 0  9993
2 49186  87.8924  75.2104 0001728 106.7201 253.4117 13.13472474155068
ONEWEB-0303             
1 49187U 21083B   24321.27777143  .00000028  00000+0  38035-4 0  9995
2 49187  87.9094  90.4522 0001719 105.7058 254.4264 13.18685642153813
ONEWEB-0306             
1 49188U 21083C   24321.11651026  .00000133  00000+0  30407-3 0  9991
2 49188  87.9088  90.4705 0001411 108.5986 251.5300 13.18688320153837
ONEWEB-0307             
1 49189U 21083D   24321.27549685 -.00000258  00000+0 -74134-3 0  9991
2 49189  87.8925  75.2131 0001369  93.8450 266.2835 13.13472445155062
ONEWEB-0320             
1 49190U 21083E   24321.27460588  .00000043  00000+0  76608-4 0  9996
2 49190  87.9094  90.4652 0001570  98.9122 261.2188 13.18685498153811
ONEWEB-0321             
1 49191U 21083F   24321.25237417 -.00000006  00000+0 -46103-4 0  9996
2 49191  87.9289  29.4130 0001877  92.9347 267.2001 13.20769923160541
ONEWEB-0322             
1 49192U 21083G   24321.27154867 -.00000209  00000+0 -60666-3 0  9990
2 49192  87.8927  75.2035 0001529  85.0005 275.1299 13.13471657155054
ONEWEB-0324             
1 49193U 21083H   24321.41212981  .00000080  00000+0  17038-3 0  9999
2 49193  87.9092  90.4184 0001375 105.7947 254.3337 13.18687680155138
ONEWEB-0325             
1 49194U 21083J   24321.41687379  .00000061  00000+0  12237-3 0  9992
2 49194  87.9093  90.4333 0001598  96.2959 263.8355 13.18685139155143
ONEWEB-0326             
1 49195U 21083K   24321.27935254  .00000037  00000+0  62118-4 0  9992
2 49195  87.9092  90.4557 0001831 113.0682 247.0643 13.18684566153833
ONEWEB-0327             
1 49196U 21083L   24321.27856104  .00000071  00000+0  14843-3 0  9998
2 49196  87.9095  90.4816 0001871 107.3586 252.7751 13.18684734153850
